IRIDIUM 28 [-]          
1 24948U 97051E   17346.14874128  .00000094  00000-0  25645-4 0  9994
2 24948  86.3989 211.5664 0002352  85.6898 274.4567 14.35585767 60117
